NUSHSAT1                
1 63211U 25052B   26068.64700493  .00023034  00000+0  74857-3 0  9997
2 63211  97.4095 325.7239 0005501  84.7512 275.4357 15.31903202 54882
STARLINK-34910          
1 66269U 25247E   26068.61995141  .00033808  00000+0  11487-2 0  9991
2 66269  53.1585 191.6779 0001103  93.2829 266.8298 15.30190409 21024
